ORBCOMM FM36 [-]        
1 25984U 99065E   24095.45335371  .00001189  00000+0  45972-3 0  9996
2 25984  45.0417   5.6158 0003525 270.4041  89.6402 14.35365247271323
ORBCOMM FM34 [-]        
1 25986U 99065G   24095.45468483  .00001093  00000+0  42997-3 0  9997
2 25986  45.0412   8.6730 0004458 312.1502  47.8966 14.34945165271830
ORBCOMM FM38 [-]        
1 33060U 08031A   24095.65318043  .00002030  00000+0  31235-3 0  9995
2 33060  48.4398 238.5918 0005794 313.4257  46.6174 14.77244281849825
ORBCOMM FM41 [-]        
1 33061U 08031B   24095.64180639  .00001967  00000+0  30542-3 0  9991
2 33061  48.4429 245.1820 0005056 299.5457 151.9644 14.76977380849323
ORBCOMM FM29 [-]        
1 33062U 08031C   24095.56560038  .00001982  00000+0  30800-3 0  9992
2 33062  48.4385 253.5753 0006875 299.1720 177.9319 14.76895715849229
